start=new Date('2023-05-06T00:00:00.000Z').valueOf();
sats=[{"GP_ID":"231288128","PERIOD":"95.590","ECCENTRICITY":"0.00012300","TLE_LINE2":"2 47885  53.0539 270.8896 0001230  51.0741 309.0357 15.06427344118893","TLE_LINE1":"1 47885U 21021AB  23125.68473578  .00026107  00000-0  17638-2 0  9992","MEAN_MOTION":"15.06427344","SEMIMAJOR_AXIS":"6925.265","FILE":"3901689","RCS_SIZE":"LARGE","MEAN_MOTION_DDOT":"0.0000000000000","EPOCH":"2023-05-05T16:26:01.171392","MEAN_MOTION_DOT":"0.00026107","SITE":"AFETR","BSTAR":"0.00176380000000","OBJECT_TYPE":"PAYLOAD","INCLINATION":"53.0539","MEAN_ELEMENT_THEORY":"SGP4","REV_AT_EPOCH":"11889","ARG_OF_PERICENTER":"51.0741","TIME_SYSTEM":"UTC","APOAPSIS":"547.982","MEAN_ANOMALY":"309.0357","CLASSIFICATION_TYPE":"U","NORAD_CAT_ID":"47885","OBJECT_ID":"2021-021AB","EPHEMERIS_TYPE":"0","CENTER_NAME":"EARTH","ELEMENT_SET_NO":"999","RA_OF_ASC_NODE":"270.8896","DECAY_DATE":null,"REF_FRAME":"TEME","LAUNCH_DATE":"2021-03-14","COUNTRY_CODE":"US","OBJECT_NAME":"STARLINK-2344","PERIAPSIS":"546.278"},{"OBJECT_TYPE":"PAYLOAD","INCLINATION":"53.0620","REV_AT_EPOCH":"11916","MEAN_ELEMENT_THEORY":"SGP4","TIME_SYSTEM":"UTC","ARG_OF_PERICENTER":"284.5997","GP_ID":"231291555","PERIOD":"94.390","ECCENTRICITY":"0.00046640","TLE_LINE2":"2 47886  53.0620 251.3878 0004664 284.5997  75.4483 15.25589968119166","MEAN_MOTION":"15.25589968","TLE_LINE1":"1 47886U 21021AC  23125.61341079  .00067190  00000-0  26000-2 0  9996","FILE":"3901811","RCS_SIZE":"LARGE","SEMIMAJOR_AXIS":"6867.151","SITE":"AFETR","MEAN_MOTION_DOT":"0.00067190","BSTAR":"0.00260000000000","MEAN_MOTION_DDOT":"0.0000000000000","EPOCH":"2023-05-05T14:43:18.692256","DECAY_DATE":null,"LAUNCH_DATE":"2021-03-14","REF_FRAME":"TEME","COUNTRY_CODE":"US","OBJECT_NAME":"STARLINK-2345","PERIAPSIS":"485.814","APOAPSIS":"492.219","OBJECT_ID":"2021-021AC","NORAD_CAT_ID":"47886","CLASSIFICATION_TYPE":"U","MEAN_ANOMALY":"75.4483","EPHEMERIS_TYPE":"0","CENTER_NAME":"EARTH","RA_OF_ASC_NODE":"251.3878","ELEMENT_SET_NO":"999"},{"PERIAPSIS":"546.476","OBJECT_NAME":"STARLINK-2346","COUNTRY_CODE":"US","LAUNCH_DATE":"2021-03-14","REF_FRAME":"TEME","DECAY_DATE":null,"ELEMENT_SET_NO":"999","RA_OF_ASC_NODE":"267.2698","CENTER_NAME":"EARTH","EPHEMERIS_TYPE":"0","OBJECT_ID":"2021-021AD","NORAD_CAT_ID":"47887","CLASSIFICATION_TYPE":"U","MEAN_ANOMALY":"253.7250","APOAPSIS":"547.893","TIME_SYSTEM":"UTC","ARG_OF_PERICENTER":"106.3852","MEAN_ELEMENT_THEORY":"SGP4","REV_AT_EPOCH":"11892","INCLINATION":"53.0537","OBJECT_TYPE":"PAYLOAD","MEAN_MOTION_DOT":"0.00025422","SITE":"AFETR","BSTAR":"0.00171900000000","EPOCH":"2023-05-05T09:03:29.750688","MEAN_MOTION_DDOT":"0.0000000000000","RCS_SIZE":"LARGE","FILE":"3901445","SEMIMAJOR_AXIS":"6925.319","TLE_LINE1":"1 47887U 21021AD  23125.37742767  .00025422  00000-0  17190-2 0  9991","TLE_LINE2":"2 47887  53.0537 267.2698 0001023 106.3852 253.7250 15.06409588118921","MEAN_MOTION":"15.06409588","ECCENTRICITY":"0.00010230","PERIOD":"95.592","GP_ID":"231282593"},{"TLE_LINE1":"1 47888U 21021AE  23125.66584042  .00026116  00000-0  17633-2 0  9997","TLE_LINE2":"2 47888  53.0540 255.9753 0000504  95.7265 264.3781 15.06449602119114","MEAN_MOTION":"15.06449602","ECCENTRICITY":"0.00005040","MEAN_MOTION_DDOT":"0.0000000000000","EPOCH":"2023-05-05T15:58:48.612288","BSTAR":"0.00176330000000","SITE":"AFETR","MEAN_MOTION_DOT":"0.00026116","FILE":"3901689","RCS_SIZE":"LARGE","SEMIMAJOR_AXIS":"6925.197","PERIOD":"95.589","GP_ID":"231288221","ARG_OF_PERICENTER":"95.7265","TIME_SYSTEM":"UTC","INCLINATION":"53.0540","OBJECT_TYPE":"PAYLOAD","MEAN_ELEMENT_THEORY":"SGP4","REV_AT_EPOCH":"11911","RA_OF_ASC_NODE":"255.9753","ELEMENT_SET_NO":"999","MEAN_ANOMALY":"264.3781","CLASSIFICATION_TYPE":"U","NORAD_CAT_ID":"47888","OBJECT_ID":"2021-021AE","APOAPSIS":"547.411","CENTER_NAME":"EARTH","EPHEMERIS_TYPE":"0","PERIAPSIS":"546.713","REF_FRAME":"TEME","LAUNCH_DATE":"2021-03-14","DECAY_DATE":null,"OBJECT_NAME":"STARLINK-2348","COUNTRY_CODE":"US"},{"PERIAPSIS":"546.545","COUNTRY_CODE":"US","OBJECT_NAME":"STARLINK-2349","DECAY_DATE":null,"LAUNCH_DATE":"2021-03-14","REF_FRAME":"TEME","ELEMENT_SET_NO":"999","RA_OF_ASC_NODE":"256.2225","EPHEMERIS_TYPE":"0","CENTER_NAME":"EARTH","APOAPSIS":"547.744","OBJECT_ID":"2021-021AF","NORAD_CAT_ID":"47889","CLASSIFICATION_TYPE":"U","MEAN_ANOMALY":"271.0858","TIME_SYSTEM":"UTC","ARG_OF_PERICENTER":"89.0230","MEAN_ELEMENT_THEORY":"SGP4","REV_AT_EPOCH":"11910","OBJECT_TYPE":"PAYLOAD","INCLINATION":"53.0543","SEMIMAJOR_AXIS":"6925.279","FILE":"3901689","RCS_SIZE":"LARGE","SITE":"AFETR","BSTAR":"0.00126670000000","MEAN_MOTION_DOT":"0.00018648","EPOCH":"2023-05-05T14:39:11.967552","MEAN_MOTION_DDOT":"0.0000000000000","ECCENTRICITY":"0.00008660","TLE_LINE1":"1 47889U 21021AF  23125.61055518  .00018648  00000-0  12667-2 0  9997","TLE_LINE2":"2 47889  53.0543 256.2225 0000866  89.0230 271.0858 15.06422582119102","MEAN_MOTION":"15.06422582","GP_ID":"231288125","PERIOD":"95.591"},{"GP_ID":"231285454","PERIOD":"95.591","FILE":"3901574","RCS_SIZE":"LARGE","SEMIMAJOR_AXIS":"6925.296","MEAN_MOTION_DDOT":"0.0000000000000","EPOCH":"2023-05-05T13:12:57.265920","BSTAR":"0.00141060000000","SITE":"AFETR","MEAN_MOTION_DOT":"0.00020801","ECCENTRICITY":"0.00008240","TLE_LINE2":"2 47891  53.0548 266.4909 0000824 118.3681 241.7391 15.06417055118959","MEAN_MOTION":"15.06417055","TLE_LINE1":"1 47891U 21021AH  23125.55066280  .00020801  00000-0  14106-2 0  9995","MEAN_ELEMENT_THEORY":"SGP4","REV_AT_EPOCH":"11895","OBJECT_TYPE":"PAYLOAD","INCLINATION":"53.0548","ARG_OF_PERICENTER":"118.3681","TIME_SYSTEM":"UTC","EPHEMERIS_TYPE":"0","CENTER_NAME":"EARTH","APOAPSIS":"547.732","CLASSIFICATION_TYPE":"U","MEAN_ANOMALY":"241.7391","OBJECT_ID":"2021-021AH","NORAD_CAT_ID":"47891","RA_OF_ASC_NODE":"266.4909","ELEMENT_SET_NO":"999","COUNTRY_CODE":"US","OBJECT_NAME":"STARLINK-2351","DECAY_DATE":null,"REF_FRAME":"TEME","LAUNCH_DATE":"2021-03-14","PERIAPSIS":"546.591"},{"OBJECT_ID":"2021-021AJ","NORAD_CAT_ID":"47892","CLASSIFICATION_TYPE":"U","MEAN_ANOMALY":"269.9020","APOAPSIS":"514.346","CENTER_NAME":"EARTH","EPHEMERIS_TYPE":"0","ELEMENT_SET_NO":"999","RA_OF_ASC_NODE":"234.0404","LAUNCH_DATE":"2021-03-14","REF_FRAME":"TEME","DECAY_DATE":null,"OBJECT_NAME":"STARLINK-2352","COUNTRY_CODE":"US","PERIAPSIS":"512.825","PERIOD":"94.897","GP_ID":"231283445","TLE_LINE2":"2 47892  53.0562 234.0404 0001103  90.2100 269.9020 15.17439093119413","MEAN_MOTION":"15.17439093","TLE_LINE1":"1 47892U 21021AJ  23125.52113666  .00038183  00000-0  18908-2 0  9990","ECCENTRICITY":"0.00011030","MEAN_MOTION_DOT":"0.00038183","SITE":"AFETR","BSTAR":"0.00189080000000","EPOCH":"2023-05-05T12:30:26.207424","MEAN_MOTION_DDOT":"0.0000000000000","FILE":"3901483","SEMIMAJOR_AXIS":"6891.721","RCS_SIZE":"LARGE","INCLINATION":"53.0562","OBJECT_TYPE":"PAYLOAD","MEAN_ELEMENT_THEORY":"SGP4","REV_AT_EPOCH":"11941","TIME_SYSTEM":"UTC","ARG_OF_PERICENTER":"90.2100"},{"PERIOD":"95.590","GP_ID":"231289514","MEAN_MOTION_DDOT":"0.0000000000000","EPOCH":"2023-05-05T15:21:39.662496","SITE":"AFETR","MEAN_MOTION_DOT":"0.00023387","BSTAR":"0.00158240000000","FILE":"3901734","SEMIMAJOR_AXIS":"6925.252","RCS_SIZE":"LARGE","TLE_LINE2":"2 47894  53.0545 256.0900 0001505  58.4541 301.6595 15.06431408119110","MEAN_MOTION":"15.06431408","TLE_LINE1":"1 47894U 21021AL  23125.64004239  .00023387  00000-0  15824-2 0  9994","ECCENTRICITY":"0.00015050","MEAN_ELEMENT_THEORY":"SGP4","REV_AT_EPOCH":"11911","INCLINATION":"53.0545","OBJECT_TYPE":"PAYLOAD","ARG_OF_PERICENTER":"58.4541","TIME_SYSTEM":"UTC","CENTER_NAME":"EARTH","EPHEMERIS_TYPE":"0","CLASSIFICATION_TYPE":"U","MEAN_ANOMALY":"301.6595","OBJECT_ID":"2021-021AL","NORAD_CAT_ID":"47894","APOAPSIS":"548.160","RA_OF_ASC_NODE":"256.0900","ELEMENT_SET_NO":"999","OBJECT_NAME":"STARLINK-2354","COUNTRY_CODE":"US","REF_FRAME":"TEME","LAUNCH_DATE":"2021-03-14","DECAY_DATE":null,"PERIAPSIS":"546.075"},{"GP_ID":"231270441","PERIOD":"95.593","ECCENTRICITY":"0.00009060","TLE_LINE2":"2 47895  53.0535 259.9173 0000906  93.3879 266.7213 15.06393372119430","TLE_LINE1":"1 47895U 21021AM  23124.78861049  .00028171  00000-0  19029-2 0  9996","MEAN_MOTION":"15.06393372","RCS_SIZE":"LARGE","FILE":"3901186","SEMIMAJOR_AXIS":"6925.369","MEAN_MOTION_DDOT":"0.0000000000000","EPOCH":"2023-05-04T18:55:35.946336","BSTAR":"0.00190290000000","SITE":"AFETR","MEAN_MOTION_DOT":"0.00028171","OBJECT_TYPE":"PAYLOAD","INCLINATION":"53.0535","MEAN_ELEMENT_THEORY":"SGP4","REV_AT_EPOCH":"11943","ARG_OF_PERICENTER":"93.3879","TIME_SYSTEM":"UTC","APOAPSIS":"547.861","CLASSIFICATION_TYPE":"U","MEAN_ANOMALY":"266.7213","NORAD_CAT_ID":"47895","OBJECT_ID":"2021-021AM","EPHEMERIS_TYPE":"0","CENTER_NAME":"EARTH","RA_OF_ASC_NODE":"259.9173","ELEMENT_SET_NO":"999","DECAY_DATE":null,"REF_FRAME":"TEME","LAUNCH_DATE":"2021-03-14","COUNTRY_CODE":"US","OBJECT_NAME":"STARLINK-2355","PERIAPSIS":"546.606"},{"PERIOD":"95.589","GP_ID":"231278840","TLE_LINE2":"2 47896  53.0543 273.4562 0000853  92.8608 267.2478 15.06442084118813","MEAN_MOTION":"15.06442084","TLE_LINE1":"1 47896U 21021AN  23125.11339590  .00023760  00000-0  16068-2 0  9995","ECCENTRICITY":"0.00008530","MEAN_MOTION_DDOT":"0.0000000000000","EPOCH":"2023-05-05T02:43:17.405760","BSTAR":"0.00160680000000","SITE":"AFETR","MEAN_MOTION_DOT":"0.00023760","FILE":"3901288","RCS_SIZE":"LARGE","SEMIMAJOR_AXIS":"6925.220","INCLINATION":"53.0543","OBJECT_TYPE":"PAYLOAD","MEAN_ELEMENT_THEORY":"SGP4","REV_AT_EPOCH":"11881","ARG_OF_PERICENTER":"92.8608","TIME_SYSTEM":"UTC","CLASSIFICATION_TYPE":"U","MEAN_ANOMALY":"267.2478","OBJECT_ID":"2021-021AN","NORAD_CAT_ID":"47896","APOAPSIS":"547.675","CENTER_NAME":"EARTH","EPHEMERIS_TYPE":"0","ELEMENT_SET_NO":"999","RA_OF_ASC_NODE":"273.4562","REF_FRAME":"TEME","LAUNCH_DATE":"2021-03-14","DECAY_DATE":null,"OBJECT_NAME":"STARLINK-2356","COUNTRY_CODE":"US","PERIAPSIS":"546.494"}];
